STARLINK-35860          
1 66881U 25283D   25361.16668980 -.02065903  00000+0 -36015-1 0  9992
2 66881  53.1597   2.1718 0001178  78.5399 312.3596 15.53401658  4740
STARLINK-35912          
1 66882U 25283E   25361.16668980 -.02052103  00000+0 -35754-1 0  9990
2 66882  53.1604   2.1691 0001182  81.7499 311.0650 15.53395372  4744
STARLINK-35947          
1 66883U 25283F   25361.16668980 -.02076192  00000+0 -36209-1 0  9991
2 66883  53.1600   2.1653 0001245  93.6517 301.0829 15.53406723  4797
STARLINK-36057          
1 66884U 25283G   25361.16668980 -.02064369  00000+0 -35988-1 0  9998
2 66884  53.1602   2.1566 0001004  77.9798 320.5880 15.53400934  4748
STARLINK-35954          
1 66885U 25283H   25361.16668980 -.02061700  00000+0 -35939-1 0  9991
2 66885  53.1602   2.1606 0001048  74.5691 322.0834 15.53398301  4747
STARLINK-35900          
1 66886U 25283J   25361.16668980 -.02057209  00000+0 -35853-1 0  9996
2 66886  53.1596   2.1525 0001101  77.5456 322.9387 15.53396847  4747
STARLINK-35925          
1 66887U 25283K   25361.16668980 -.02054239  00000+0 -35798-1 0  9995
2 66887  53.1598   2.1485 0001054  79.4279 322.9751 15.53395008  4749
STARLINK-35919          
1 66888U 25283L   25361.16668980 -.02072707  00000+0 -36145-1 0  9993
2 66888  53.1596   2.1444 0001054  79.9769 324.3418 15.53405872  4749
STARLINK-35852          
1 66889U 25283M   25361.16668980 -.02060784  00000+0 -35921-1 0  9997
2 66889  53.1599   2.1399 0001057  75.2005 331.0348 15.53398770  4742
STARLINK-35885          
1 66890U 25283N   25361.16668980 -.02071933  00000+0 -36129-1 0  9998
2 66890  53.1601   2.1363 0001101  77.1116 331.0393 15.53405996  4742
STARLINK-35855          
1 66891U 25283P   25361.16668980 -.02056558  00000+0 -35840-1 0  9994
2 66891  53.1602   2.1320 0001248  77.8963 332.1741 15.53395358  4745
STARLINK-35883          
1 66892U 25283Q   25361.16668980 -.02074604  00000+0 -36179-1 0  9993
2 66892  53.1605   2.1276 0001185  86.2921 325.6944 15.53406533  4680
