CCSDS_OMM_VERS = 2.0
CREATION_DATE  = 
ORIGINATOR     = 

OBJECT_NAME    = STARLINK-35860
OBJECT_ID      = 2025-283D
CENTER_NAME    = EARTH
REF_FRAME      = TEME
TIME_SYSTEM    = UTC
MEAN_ELEMENT_THEORY = SGP/SGP4

EPOCH          = 2025-12-27T04:00:01.998720
MEAN_MOTION    = 15.53401658
ECCENTRICITY   = .0001178
INCLINATION    = 53.1597
RA_OF_ASC_NODE = 2.1718
ARG_OF_PERICENTER = 78.5399
MEAN_ANOMALY   = 312.3596

EPHEMERIS_TYPE = 0
CLASSIFICATION_TYPE = U
NORAD_CAT_ID   = 66881
ELEMENT_SET_NO = 999
REV_AT_EPOCH   = 474
BSTAR          = -.36015E-1
MEAN_MOTION_DOT = -.2065903E-1
MEAN_MOTION_DDOT = 0

CCSDS_OMM_VERS = 2.0
CREATION_DATE  = 
ORIGINATOR     = 

OBJECT_NAME    = STARLINK-35912
OBJECT_ID      = 2025-283E
CENTER_NAME    = EARTH
REF_FRAME      = TEME
TIME_SYSTEM    = UTC
MEAN_ELEMENT_THEORY = SGP/SGP4

EPOCH          = 2025-12-27T04:00:01.998720
MEAN_MOTION    = 15.53395372
ECCENTRICITY   = .0001182
INCLINATION    = 53.1604
RA_OF_ASC_NODE = 2.1691
ARG_OF_PERICENTER = 81.7499
MEAN_ANOMALY   = 311.0650

EPHEMERIS_TYPE = 0
CLASSIFICATION_TYPE = U
NORAD_CAT_ID   = 66882
ELEMENT_SET_NO = 999
REV_AT_EPOCH   = 474
BSTAR          = -.35754E-1
MEAN_MOTION_DOT = -.2052103E-1
MEAN_MOTION_DDOT = 0

CCSDS_OMM_VERS = 2.0
CREATION_DATE  = 
ORIGINATOR     = 

OBJECT_NAME    = STARLINK-35947
OBJECT_ID      = 2025-283F
CENTER_NAME    = EARTH
REF_FRAME      = TEME
TIME_SYSTEM    = UTC
MEAN_ELEMENT_THEORY = SGP/SGP4

EPOCH          = 2025-12-27T04:00:01.998720
MEAN_MOTION    = 15.53406723
ECCENTRICITY   = .0001245
INCLINATION    = 53.1600
RA_OF_ASC_NODE = 2.1653
ARG_OF_PERICENTER = 93.6517
MEAN_ANOMALY   = 301.0829

EPHEMERIS_TYPE = 0
CLASSIFICATION_TYPE = U
NORAD_CAT_ID   = 66883
ELEMENT_SET_NO = 999
REV_AT_EPOCH   = 479
BSTAR          = -.36209E-1
MEAN_MOTION_DOT = -.2076192E-1
MEAN_MOTION_DDOT = 0

CCSDS_OMM_VERS = 2.0
CREATION_DATE  = 
ORIGINATOR     = 

OBJECT_NAME    = STARLINK-36057
OBJECT_ID      = 2025-283G
CENTER_NAME    = EARTH
REF_FRAME      = TEME
TIME_SYSTEM    = UTC
MEAN_ELEMENT_THEORY = SGP/SGP4

EPOCH          = 2025-12-27T04:00:01.998720
MEAN_MOTION    = 15.53400934
ECCENTRICITY   = .0001004
INCLINATION    = 53.1602
RA_OF_ASC_NODE = 2.1566
ARG_OF_PERICENTER = 77.9798
MEAN_ANOMALY   = 320.5880

EPHEMERIS_TYPE = 0
CLASSIFICATION_TYPE = U
NORAD_CAT_ID   = 66884
ELEMENT_SET_NO = 999
REV_AT_EPOCH   = 474
BSTAR          = -.35988E-1
MEAN_MOTION_DOT = -.2064369E-1
MEAN_MOTION_DDOT = 0

CCSDS_OMM_VERS = 2.0
CREATION_DATE  = 
ORIGINATOR     = 

OBJECT_NAME    = STARLINK-35954
OBJECT_ID      = 2025-283H
CENTER_NAME    = EARTH
REF_FRAME      = TEME
TIME_SYSTEM    = UTC
MEAN_ELEMENT_THEORY = SGP/SGP4

EPOCH          = 2025-12-27T04:00:01.998720
MEAN_MOTION    = 15.53398301
ECCENTRICITY   = .0001048
INCLINATION    = 53.1602
RA_OF_ASC_NODE = 2.1606
ARG_OF_PERICENTER = 74.5691
MEAN_ANOMALY   = 322.0834

EPHEMERIS_TYPE = 0
CLASSIFICATION_TYPE = U
NORAD_CAT_ID   = 66885
ELEMENT_SET_NO = 999
REV_AT_EPOCH   = 474
BSTAR          = -.35939E-1
MEAN_MOTION_DOT = -.20617E-1
MEAN_MOTION_DDOT = 0

CCSDS_OMM_VERS = 2.0
CREATION_DATE  = 
ORIGINATOR     = 

OBJECT_NAME    = STARLINK-35900
OBJECT_ID      = 2025-283J
CENTER_NAME    = EARTH
REF_FRAME      = TEME
TIME_SYSTEM    = UTC
MEAN_ELEMENT_THEORY = SGP/SGP4

EPOCH          = 2025-12-27T04:00:01.998720
MEAN_MOTION    = 15.53396847
ECCENTRICITY   = .0001101
INCLINATION    = 53.1596
RA_OF_ASC_NODE = 2.1525
ARG_OF_PERICENTER = 77.5456
MEAN_ANOMALY   = 322.9387

EPHEMERIS_TYPE = 0
CLASSIFICATION_TYPE = U
NORAD_CAT_ID   = 66886
ELEMENT_SET_NO = 999
REV_AT_EPOCH   = 474
BSTAR          = -.35853E-1
MEAN_MOTION_DOT = -.2057209E-1
MEAN_MOTION_DDOT = 0

CCSDS_OMM_VERS = 2.0
CREATION_DATE  = 
ORIGINATOR     = 

OBJECT_NAME    = STARLINK-35925
OBJECT_ID      = 2025-283K
CENTER_NAME    = EARTH
REF_FRAME      = TEME
TIME_SYSTEM    = UTC
MEAN_ELEMENT_THEORY = SGP/SGP4

EPOCH          = 2025-12-27T04:00:01.998720
MEAN_MOTION    = 15.53395008
ECCENTRICITY   = .0001054
INCLINATION    = 53.1598
RA_OF_ASC_NODE = 2.1485
ARG_OF_PERICENTER = 79.4279
MEAN_ANOMALY   = 322.9751

EPHEMERIS_TYPE = 0
CLASSIFICATION_TYPE = U
NORAD_CAT_ID   = 66887
ELEMENT_SET_NO = 999
REV_AT_EPOCH   = 474
BSTAR          = -.35798E-1
MEAN_MOTION_DOT = -.2054239E-1
MEAN_MOTION_DDOT = 0

CCSDS_OMM_VERS = 2.0
CREATION_DATE  = 
ORIGINATOR     = 

OBJECT_NAME    = STARLINK-35919
OBJECT_ID      = 2025-283L
CENTER_NAME    = EARTH
REF_FRAME      = TEME
TIME_SYSTEM    = UTC
MEAN_ELEMENT_THEORY = SGP/SGP4

EPOCH          = 2025-12-27T04:00:01.998720
MEAN_MOTION    = 15.53405872
ECCENTRICITY   = .0001054
INCLINATION    = 53.1596
RA_OF_ASC_NODE = 2.1444
ARG_OF_PERICENTER = 79.9769
MEAN_ANOMALY   = 324.3418

EPHEMERIS_TYPE = 0
CLASSIFICATION_TYPE = U
NORAD_CAT_ID   = 66888
ELEMENT_SET_NO = 999
REV_AT_EPOCH   = 474
BSTAR          = -.36145E-1
MEAN_MOTION_DOT = -.2072707E-1
MEAN_MOTION_DDOT = 0

CCSDS_OMM_VERS = 2.0
CREATION_DATE  = 
ORIGINATOR     = 

OBJECT_NAME    = STARLINK-35852
OBJECT_ID      = 2025-283M
CENTER_NAME    = EARTH
REF_FRAME      = TEME
TIME_SYSTEM    = UTC
MEAN_ELEMENT_THEORY = SGP/SGP4

EPOCH          = 2025-12-27T04:00:01.998720
MEAN_MOTION    = 15.53398770
ECCENTRICITY   = .0001057
INCLINATION    = 53.1599
RA_OF_ASC_NODE = 2.1399
ARG_OF_PERICENTER = 75.2005
MEAN_ANOMALY   = 331.0348

EPHEMERIS_TYPE = 0
CLASSIFICATION_TYPE = U
NORAD_CAT_ID   = 66889
ELEMENT_SET_NO = 999
REV_AT_EPOCH   = 474
BSTAR          = -.35921E-1
MEAN_MOTION_DOT = -.2060784E-1
MEAN_MOTION_DDOT = 0

CCSDS_OMM_VERS = 2.0
CREATION_DATE  = 
ORIGINATOR     = 

OBJECT_NAME    = STARLINK-35885
OBJECT_ID      = 2025-283N
CENTER_NAME    = EARTH
REF_FRAME      = TEME
TIME_SYSTEM    = UTC
MEAN_ELEMENT_THEORY = SGP/SGP4

EPOCH          = 2025-12-27T04:00:01.998720
MEAN_MOTION    = 15.53405996
ECCENTRICITY   = .0001101
INCLINATION    = 53.1601
RA_OF_ASC_NODE = 2.1363
ARG_OF_PERICENTER = 77.1116
MEAN_ANOMALY   = 331.0393

EPHEMERIS_TYPE = 0
CLASSIFICATION_TYPE = U
NORAD_CAT_ID   = 66890
ELEMENT_SET_NO = 999
REV_AT_EPOCH   = 474
BSTAR          = -.36129E-1
MEAN_MOTION_DOT = -.2071933E-1
MEAN_MOTION_DDOT = 0

CCSDS_OMM_VERS = 2.0
CREATION_DATE  = 
ORIGINATOR     = 

OBJECT_NAME    = STARLINK-35855
OBJECT_ID      = 2025-283P
CENTER_NAME    = EARTH
REF_FRAME      = TEME
TIME_SYSTEM    = UTC
MEAN_ELEMENT_THEORY = SGP/SGP4

EPOCH          = 2025-12-27T04:00:01.998720
MEAN_MOTION    = 15.53395358
ECCENTRICITY   = .0001248
INCLINATION    = 53.1602
RA_OF_ASC_NODE = 2.1320
ARG_OF_PERICENTER = 77.8963
MEAN_ANOMALY   = 332.1741

EPHEMERIS_TYPE = 0
CLASSIFICATION_TYPE = U
NORAD_CAT_ID   = 66891
ELEMENT_SET_NO = 999
REV_AT_EPOCH   = 474
BSTAR          = -.3584E-1
MEAN_MOTION_DOT = -.2056558E-1
MEAN_MOTION_DDOT = 0

CCSDS_OMM_VERS = 2.0
CREATION_DATE  = 
ORIGINATOR     = 

OBJECT_NAME    = STARLINK-35883
OBJECT_ID      = 2025-283Q
CENTER_NAME    = EARTH
REF_FRAME      = TEME
TIME_SYSTEM    = UTC
MEAN_ELEMENT_THEORY = SGP/SGP4

EPOCH          = 2025-12-27T04:00:01.998720
MEAN_MOTION    = 15.53406533
ECCENTRICITY   = .0001185
INCLINATION    = 53.1605
RA_OF_ASC_NODE = 2.1276
ARG_OF_PERICENTER = 86.2921
MEAN_ANOMALY   = 325.6944

EPHEMERIS_TYPE = 0
CLASSIFICATION_TYPE = U
NORAD_CAT_ID   = 66892
ELEMENT_SET_NO = 999
REV_AT_EPOCH   = 468
BSTAR          = -.36179E-1
MEAN_MOTION_DOT = -.2074604E-1
MEAN_MOTION_DDOT = 0

